STARLINK-37108          
1 68218U 26053M   26082.75003472 -.02083363  12594-2 -46213-2 0  9995
2 68218  97.2782 317.6049 0001441  91.6419 336.1732 15.98101819  2271
STARLINK-37106          
1 68219U 26053N   26082.75003472 -.02076994  12541-2 -45725-2 0  9997
2 68219  97.2782 317.6056 0001433  76.9815 352.6288 15.98238011  2271
STARLINK-37030          
1 68220U 26053P   26082.75003472 -.02122435  13119-2 -45946-2 0  9998
2 68220  97.2777 317.6071 0001429  83.0242 350.5991 15.98545768  2270
STARLINK-37012          
1 68221U 26053Q   26082.75003472 -.02116487  13026-2 -46198-2 0  9996
2 68221  97.2778 317.6063 0001448  76.8136 354.7645 15.98396022  2275
STARLINK-37110          
1 68222U 26053R   26082.75003472 -.02052344  12318-2 -44148-2 0  9994
2 68222  97.2778 317.6079 0001517  74.1388   1.4006 15.98653540  2278
STARLINK-37025          
1 68223U 26053S   26082.75003472 -.02112431  13044-2 -45024-2 0  9990
2 68223  97.2775 317.6083 0001455  79.8178 357.7946 15.98824484  2278
STARLINK-36977          
1 68224U 26053T   26082.75003472 -.02107640  13008-2 -44584-2 0  9997
2 68224  97.2770 317.6091 0001484  79.1251   0.2391 15.98959351  2164
STARLINK-36960          
1 68225U 26053U   26082.75003472 -.02097811  12911-2 -44055-2 0  9991
2 68225  97.2771 317.6098 0001395  78.0835   2.9890 15.99089223  2256
STARLINK-37038          
1 68226U 26053V   26082.75003472 -.02105406  13046-2 -43512-2 0  9999
2 68226  97.2773 317.6118 0001435  77.2974   7.7113 15.99375706  2257
STARLINK-37083          
1 68227U 26053W   26076.91670139  .00451132  10337-3  50505-3 0  9999
2 68227  97.2838 311.1986 0011267 270.0799 280.1631 16.09297729  1312
STARLINK-37050          
1 68228U 26053X   26082.75003472 -.02104251  13054-2 -43143-2 0  9997
2 68228  97.2775 317.6131 0001501  78.1536   8.9822 15.99517400  2253
STARLINK-37081          
1 68229U 26053Y   26082.75003472 -.02101940  13092-2 -42105-2 0  9999
2 68229  97.2770 317.6154 0001536  75.6812  17.2418 15.99930003  2275
